STARLINK-36633          
1 67632U 26020R   26039.50002314 -.01784286  00000+0 -84504-2 0  9999
2 67632  42.9997 319.6377 0001683 271.7126 261.7670 15.85211722  2696
STARLINK-36637          
1 67633U 26020S   26039.50002314 -.01781021  00000+0 -83757-2 0  9993
2 67633  42.9997 319.6303 0001492 263.6214 272.8420 15.85351542  2693
STARLINK-36617          
1 67634U 26020T   26039.50002314 -.01769828  00000+0 -82522-2 0  9994
2 67634  42.9998 319.6214 0001477 272.7152 267.1786 15.85503686  2691
STARLINK-36627          
1 67635U 26020U   26039.50002314 -.01781055  00000+0 -80881-2 0  9997
2 67635  42.9997 319.5912 0001554 263.4258 288.4463 15.86059070  2697
STARLINK-36624          
1 67636U 26020V   26039.50002314 -.01781161  00000+0 -81409-2 0  9993
2 67636  42.9999 319.5985 0001513 268.4015 280.7110 15.85929527  2697
STARLINK-36610          
1 67637U 26020W   26039.50002314 -.01768798  00000+0 -79411-2 0  9995
2 67637  42.9999 319.5807 0001510 271.0802 285.0320 15.86266682  2690
STARLINK-36599          
1 67638U 26020X   26039.50002314 -.01772495  00000+0 -78819-2 0  9996
2 67638  42.9997 319.5707 0001486 257.4748 302.5754 15.86466660  2691
STARLINK-36595          
1 67639U 26020Y   26039.50002314 -.01767170  00000+0 -77823-2 0  9995
2 67639  42.9998 319.5612 0001727 260.8980 302.8621 15.86648014  2693
STARLINK-36570          
1 67640U 26020Z   26039.50002314 -.01763759  00000+0 -77143-2 0  9991
2 67640  42.9998 319.5541 0001781 259.5779 306.9473 15.86777889  2690
STARLINK-36514          
1 67641U 26020AA  26039.50002314 -.01753880  00000+0 -75162-2 0  9995
2 67641  42.9997 319.5343 0001606 259.2992 315.1168 15.87169489  2695
STARLINK-36556          
1 67642U 26020AB  26039.50002314 -.01757757  00000+0 -74815-2 0  9997
2 67642  42.9996 319.5265 0001677 263.6437 313.7081 15.87312211  2690
STARLINK-36533          
1 67643U 26020AC  26039.50002314 -.01762093  00000+0 -76339-2 0  9990
2 67643  42.9996 319.5443 0001565 263.2945 307.0376 15.86968572  2694
