CCSDS_OMM_VERS = 2.0
CREATION_DATE  = 
ORIGINATOR     = 

OBJECT_NAME    = STARLINK-36633
OBJECT_ID      = 2026-020R
CENTER_NAME    = EARTH
REF_FRAME      = TEME
TIME_SYSTEM    = UTC
MEAN_ELEMENT_THEORY = SGP/SGP4

EPOCH          = 2026-02-08T12:00:01.999296
MEAN_MOTION    = 15.85211722
ECCENTRICITY   = .0001683
INCLINATION    = 42.9997
RA_OF_ASC_NODE = 319.6377
ARG_OF_PERICENTER = 271.7126
MEAN_ANOMALY   = 261.7670

EPHEMERIS_TYPE = 0
CLASSIFICATION_TYPE = U
NORAD_CAT_ID   = 67632
ELEMENT_SET_NO = 999
REV_AT_EPOCH   = 269
BSTAR          = -.84504E-2
MEAN_MOTION_DOT = -.1784286E-1
MEAN_MOTION_DDOT = 0

CCSDS_OMM_VERS = 2.0
CREATION_DATE  = 
ORIGINATOR     = 

OBJECT_NAME    = STARLINK-36637
OBJECT_ID      = 2026-020S
CENTER_NAME    = EARTH
REF_FRAME      = TEME
TIME_SYSTEM    = UTC
MEAN_ELEMENT_THEORY = SGP/SGP4

EPOCH          = 2026-02-08T12:00:01.999296
MEAN_MOTION    = 15.85351542
ECCENTRICITY   = .0001492
INCLINATION    = 42.9997
RA_OF_ASC_NODE = 319.6303
ARG_OF_PERICENTER = 263.6214
MEAN_ANOMALY   = 272.8420

EPHEMERIS_TYPE = 0
CLASSIFICATION_TYPE = U
NORAD_CAT_ID   = 67633
ELEMENT_SET_NO = 999
REV_AT_EPOCH   = 269
BSTAR          = -.83757E-2
MEAN_MOTION_DOT = -.1781021E-1
MEAN_MOTION_DDOT = 0

CCSDS_OMM_VERS = 2.0
CREATION_DATE  = 
ORIGINATOR     = 

OBJECT_NAME    = STARLINK-36617
OBJECT_ID      = 2026-020T
CENTER_NAME    = EARTH
REF_FRAME      = TEME
TIME_SYSTEM    = UTC
MEAN_ELEMENT_THEORY = SGP/SGP4

EPOCH          = 2026-02-08T12:00:01.999296
MEAN_MOTION    = 15.85503686
ECCENTRICITY   = .0001477
INCLINATION    = 42.9998
RA_OF_ASC_NODE = 319.6214
ARG_OF_PERICENTER = 272.7152
MEAN_ANOMALY   = 267.1786

EPHEMERIS_TYPE = 0
CLASSIFICATION_TYPE = U
NORAD_CAT_ID   = 67634
ELEMENT_SET_NO = 999
REV_AT_EPOCH   = 269
BSTAR          = -.82522E-2
MEAN_MOTION_DOT = -.1769828E-1
MEAN_MOTION_DDOT = 0

CCSDS_OMM_VERS = 2.0
CREATION_DATE  = 
ORIGINATOR     = 

OBJECT_NAME    = STARLINK-36627
OBJECT_ID      = 2026-020U
CENTER_NAME    = EARTH
REF_FRAME      = TEME
TIME_SYSTEM    = UTC
MEAN_ELEMENT_THEORY = SGP/SGP4

EPOCH          = 2026-02-08T12:00:01.999296
MEAN_MOTION    = 15.86059070
ECCENTRICITY   = .0001554
INCLINATION    = 42.9997
RA_OF_ASC_NODE = 319.5912
ARG_OF_PERICENTER = 263.4258
MEAN_ANOMALY   = 288.4463

EPHEMERIS_TYPE = 0
CLASSIFICATION_TYPE = U
NORAD_CAT_ID   = 67635
ELEMENT_SET_NO = 999
REV_AT_EPOCH   = 269
BSTAR          = -.80881E-2
MEAN_MOTION_DOT = -.1781055E-1
MEAN_MOTION_DDOT = 0

CCSDS_OMM_VERS = 2.0
CREATION_DATE  = 
ORIGINATOR     = 

OBJECT_NAME    = STARLINK-36624
OBJECT_ID      = 2026-020V
CENTER_NAME    = EARTH
REF_FRAME      = TEME
TIME_SYSTEM    = UTC
MEAN_ELEMENT_THEORY = SGP/SGP4

EPOCH          = 2026-02-08T12:00:01.999296
MEAN_MOTION    = 15.85929527
ECCENTRICITY   = .0001513
INCLINATION    = 42.9999
RA_OF_ASC_NODE = 319.5985
ARG_OF_PERICENTER = 268.4015
MEAN_ANOMALY   = 280.7110

EPHEMERIS_TYPE = 0
CLASSIFICATION_TYPE = U
NORAD_CAT_ID   = 67636
ELEMENT_SET_NO = 999
REV_AT_EPOCH   = 269
BSTAR          = -.81409E-2
MEAN_MOTION_DOT = -.1781161E-1
MEAN_MOTION_DDOT = 0

CCSDS_OMM_VERS = 2.0
CREATION_DATE  = 
ORIGINATOR     = 

OBJECT_NAME    = STARLINK-36610
OBJECT_ID      = 2026-020W
CENTER_NAME    = EARTH
REF_FRAME      = TEME
TIME_SYSTEM    = UTC
MEAN_ELEMENT_THEORY = SGP/SGP4

EPOCH          = 2026-02-08T12:00:01.999296
MEAN_MOTION    = 15.86266682
ECCENTRICITY   = .000151
INCLINATION    = 42.9999
RA_OF_ASC_NODE = 319.5807
ARG_OF_PERICENTER = 271.0802
MEAN_ANOMALY   = 285.0320

EPHEMERIS_TYPE = 0
CLASSIFICATION_TYPE = U
NORAD_CAT_ID   = 67637
ELEMENT_SET_NO = 999
REV_AT_EPOCH   = 269
BSTAR          = -.79411E-2
MEAN_MOTION_DOT = -.1768798E-1
MEAN_MOTION_DDOT = 0

CCSDS_OMM_VERS = 2.0
CREATION_DATE  = 
ORIGINATOR     = 

OBJECT_NAME    = STARLINK-36599
OBJECT_ID      = 2026-020X
CENTER_NAME    = EARTH
REF_FRAME      = TEME
TIME_SYSTEM    = UTC
MEAN_ELEMENT_THEORY = SGP/SGP4

EPOCH          = 2026-02-08T12:00:01.999296
MEAN_MOTION    = 15.86466660
ECCENTRICITY   = .0001486
INCLINATION    = 42.9997
RA_OF_ASC_NODE = 319.5707
ARG_OF_PERICENTER = 257.4748
MEAN_ANOMALY   = 302.5754

EPHEMERIS_TYPE = 0
CLASSIFICATION_TYPE = U
NORAD_CAT_ID   = 67638
ELEMENT_SET_NO = 999
REV_AT_EPOCH   = 269
BSTAR          = -.78819E-2
MEAN_MOTION_DOT = -.1772495E-1
MEAN_MOTION_DDOT = 0

CCSDS_OMM_VERS = 2.0
CREATION_DATE  = 
ORIGINATOR     = 

OBJECT_NAME    = STARLINK-36595
OBJECT_ID      = 2026-020Y
CENTER_NAME    = EARTH
REF_FRAME      = TEME
TIME_SYSTEM    = UTC
MEAN_ELEMENT_THEORY = SGP/SGP4

EPOCH          = 2026-02-08T12:00:01.999296
MEAN_MOTION    = 15.86648014
ECCENTRICITY   = .0001727
INCLINATION    = 42.9998
RA_OF_ASC_NODE = 319.5612
ARG_OF_PERICENTER = 260.8980
MEAN_ANOMALY   = 302.8621

EPHEMERIS_TYPE = 0
CLASSIFICATION_TYPE = U
NORAD_CAT_ID   = 67639
ELEMENT_SET_NO = 999
REV_AT_EPOCH   = 269
BSTAR          = -.77823E-2
MEAN_MOTION_DOT = -.176717E-1
MEAN_MOTION_DDOT = 0

CCSDS_OMM_VERS = 2.0
CREATION_DATE  = 
ORIGINATOR     = 

OBJECT_NAME    = STARLINK-36570
OBJECT_ID      = 2026-020Z
CENTER_NAME    = EARTH
REF_FRAME      = TEME
TIME_SYSTEM    = UTC
MEAN_ELEMENT_THEORY = SGP/SGP4

EPOCH          = 2026-02-08T12:00:01.999296
MEAN_MOTION    = 15.86777889
ECCENTRICITY   = .0001781
INCLINATION    = 42.9998
RA_OF_ASC_NODE = 319.5541
ARG_OF_PERICENTER = 259.5779
MEAN_ANOMALY   = 306.9473

EPHEMERIS_TYPE = 0
CLASSIFICATION_TYPE = U
NORAD_CAT_ID   = 67640
ELEMENT_SET_NO = 999
REV_AT_EPOCH   = 269
BSTAR          = -.77143E-2
MEAN_MOTION_DOT = -.1763759E-1
MEAN_MOTION_DDOT = 0

CCSDS_OMM_VERS = 2.0
CREATION_DATE  = 
ORIGINATOR     = 

OBJECT_NAME    = STARLINK-36514
OBJECT_ID      = 2026-020AA
CENTER_NAME    = EARTH
REF_FRAME      = TEME
TIME_SYSTEM    = UTC
MEAN_ELEMENT_THEORY = SGP/SGP4

EPOCH          = 2026-02-08T12:00:01.999296
MEAN_MOTION    = 15.87169489
ECCENTRICITY   = .0001606
INCLINATION    = 42.9997
RA_OF_ASC_NODE = 319.5343
ARG_OF_PERICENTER = 259.2992
MEAN_ANOMALY   = 315.1168

EPHEMERIS_TYPE = 0
CLASSIFICATION_TYPE = U
NORAD_CAT_ID   = 67641
ELEMENT_SET_NO = 999
REV_AT_EPOCH   = 269
BSTAR          = -.75162E-2
MEAN_MOTION_DOT = -.175388E-1
MEAN_MOTION_DDOT = 0

CCSDS_OMM_VERS = 2.0
CREATION_DATE  = 
ORIGINATOR     = 

OBJECT_NAME    = STARLINK-36556
OBJECT_ID      = 2026-020AB
CENTER_NAME    = EARTH
REF_FRAME      = TEME
TIME_SYSTEM    = UTC
MEAN_ELEMENT_THEORY = SGP/SGP4

EPOCH          = 2026-02-08T12:00:01.999296
MEAN_MOTION    = 15.87312211
ECCENTRICITY   = .0001677
INCLINATION    = 42.9996
RA_OF_ASC_NODE = 319.5265
ARG_OF_PERICENTER = 263.6437
MEAN_ANOMALY   = 313.7081

EPHEMERIS_TYPE = 0
CLASSIFICATION_TYPE = U
NORAD_CAT_ID   = 67642
ELEMENT_SET_NO = 999
REV_AT_EPOCH   = 269
BSTAR          = -.74815E-2
MEAN_MOTION_DOT = -.1757757E-1
MEAN_MOTION_DDOT = 0

CCSDS_OMM_VERS = 2.0
CREATION_DATE  = 
ORIGINATOR     = 

OBJECT_NAME    = STARLINK-36533
OBJECT_ID      = 2026-020AC
CENTER_NAME    = EARTH
REF_FRAME      = TEME
TIME_SYSTEM    = UTC
MEAN_ELEMENT_THEORY = SGP/SGP4

EPOCH          = 2026-02-08T12:00:01.999296
MEAN_MOTION    = 15.86968572
ECCENTRICITY   = .0001565
INCLINATION    = 42.9996
RA_OF_ASC_NODE = 319.5443
ARG_OF_PERICENTER = 263.2945
MEAN_ANOMALY   = 307.0376

EPHEMERIS_TYPE = 0
CLASSIFICATION_TYPE = U
NORAD_CAT_ID   = 67643
ELEMENT_SET_NO = 999
REV_AT_EPOCH   = 269
BSTAR          = -.76339E-2
MEAN_MOTION_DOT = -.1762093E-1
MEAN_MOTION_DDOT = 0

